BEIDOU-2 IGSO-5         
1 37948U 11073A   26183.72937883 -.00000128  00000+0  00000+0 0  9990
2 37948  47.6496 271.3544 0114527 222.0502 141.5350  1.00270596 53296
LUCH-5A                 
1 37951U 11074B   26201.32814909 -.00000056  00000+0  00000+0 0  9995
2 37951   8.8359  73.3187 0002803  60.2263  89.7133  1.00274264 53387
BEIDOU-2 G5             
1 38091U 12008A   26201.13092816  .00000053  00000+0  00000+0 0  9999
2 38091   3.6543  69.4930 0007264 270.1122  64.0898  1.00272000 52698
BEIDOU-2 M3             
1 38250U 12018A   26198.79533443 -.00000087  00000+0  00000+0 0  9998
2 38250  55.7296 303.8435 0021044 272.1726  87.6188  1.86229645 96510
BEIDOU-2 M4             
1 38251U 12018B   26199.26464312 -.00000089  00000+0  00000+0 0  9992
2 38251  55.6290 303.0389 0012176 272.1376  87.7565  1.86229286 96523
SES-5                   
1 38652U 12036A   26201.26288918  .00000031  00000+0  00000+0 0  9993
2 38652   0.0458 318.3562 0001959 158.0271 281.2661  1.00270738 44786
BEIDOU-2 M6             
1 38775U 12050B   26198.97421240 -.00000062  00000+0  00000+0 0  9990
2 38775  56.5713  61.8766 0012811   1.9822 358.0915  1.86230950 93881
GSAT-10                 
1 38779U 12051B   26201.13578152 -.00000167  00000+0  00000+0 0  9999
2 38779   0.0778 264.0661 0007578 191.4212 334.3142  1.00272752 50427
NAVSTAR 67 (USA 239)    
1 38833U 12053A   26200.72298784  .00000024  00000+0  00000+0 0  9997
2 38833  53.5900 142.2664 0182319  66.3032 295.5764  2.00568050100092
GSAT0103 (GALILEO-FM3)  
1 38857U 12055A   26200.15144010 -.00000035  00000+0  00000+0 0  9997
2 38857  55.8248 100.6680 0003622 312.6356  47.3724  1.70473478 85556
BEIDOU-2 G6             
1 38953U 12059A   26201.10233447 -.00000181  00000+0  00000+0 0  9999
2 38953   4.5031  73.1685 0008882 327.9302  17.6380  1.00273137 50234
LUCH-5B                 
1 38977U 12061A   26200.97891943 -.00000146  00000+0  00000+0 0  9994
2 38977  10.5531  49.5541 0003815 145.9604  78.3562  1.00270443 49932
COSMOS 2485 [GLONASS-M] 
1 39155U 13019A   26198.41189181 -.00000024  00000+0  00000+0 0  9991
2 39155  65.4363  72.5906 0022584 230.9016 128.9717  2.13103096102927
NAVSTAR 68 (USA 242)    
1 39166U 13023A   26201.08939617 -.00000038  00000+0  00000+0 0  9998
2 39166  54.4792 267.6316 0141392  51.1093 310.2110  2.00563399 96547
IRNSS-1A                
1 39199U 13034A   26191.72043649  .00000047  00000+0  00000+0 0  9995
2 39199  35.7704  63.5328 0017567 183.4462 356.2994  1.00281941 47601
NAVSTAR 69 (USA 248)    
1 39533U 14008A   26201.09126277  .00000031  00000+0  00000+0 0  9993
2 39533  53.6581 147.9776 0084050 231.5729 127.6475  2.00561932 90346
ASTRA 5B                
1 39617U 14011B   26201.26652919  .00000135  00000+0  00000+0 0  9991
2 39617   0.0660 308.4162 0002100 178.0087 291.0095  1.00271034 44998
COSMOS 2492 [GLONASS-M] 
1 39620U 14012A   26201.18630057 -.00000083  00000+0  00000+0 0  9999
2 39620  65.2760 312.8143 0010304 316.7836  43.1566  2.13103109 95944
IRNSS-1B                
1 39635U 14017A   26201.20129978  .00000129  00000+0  00000+0 0  9998
2 39635  28.9015 239.8402 0021889 191.0727 354.6647  1.00267347 45123
LUCH-5V                 
1 39727U 14023A   26201.11086306 -.00000274  00000+0  00000+0 0  9996
2 39727   5.2125  69.4035 0002135  80.7100 282.4267  1.00272126 44694
NAVSTAR 70 (USA 251)    
1 39741U 14026A   26200.86887479 -.00000106  00000+0  00000+0 0  9990
2 39741  56.4805 330.2455 0038167 325.6516  34.1064  2.00558646 89190
COSMOS 2500 [GLONASS-M] 
1 40001U 14032A   26199.94787780 -.00000075  00000+0  00000+0 0  9993
2 40001  65.2120 312.6009 0008440 191.3225 168.6798  2.13105774 94135
NAVSTAR 71 (USA 256)    
1 40105U 14045A   26200.96051760 -.00000053  00000+0  00000+0 0  9995
2 40105  55.3745  87.1591 0034747 118.4820 241.9209  2.00560594 86733
GSAT0201 (GALILEO 5)    
1 40128U 14050A   26200.21704680 -.00000064  00000+0  00000+0 0  9992
2 40128  48.8402 272.1210 1679034 180.6508 179.1522  1.85519774 78915
GSAT0202 (GALILEO 6)    
1 40129U 14050B   26198.85553230 -.00000054  00000+0  00000+0 0  9991
2 40129  48.8588 271.2629 1680174 181.3093 178.2437  1.85520332 81055
IRNSS-1C                
1 40269U 14061A   26200.84525745 -.00000169  00000+0  00000+0 0  9998
2 40269   6.5978  88.3095 0021967   5.9687 230.6942  1.00271583 43012
NAVSTAR 72 (USA 258)    
1 40294U 14068A   26200.33035813 -.00000087  00000+0  00000+0 0  9998
2 40294  57.0098  29.7176 0067446  72.4070 288.3651  2.00553506 85854
COSMOS 2501 [GLONASS-K] 
1 40315U 14075A   26201.14879892  .00000081  00000+0  00000+0 0  9996
2 40315  63.6184 189.2310 0022682 212.6689 147.1893  2.13101278 90558
NAVSTAR 73 (USA 260)    
1 40534U 15013A   26200.97012806  .00000064  00000+0  00000+0 0  9997
2 40534  53.2396 202.8474 0109920  39.9101 320.9028  2.00574099 82489
GSAT0203 (GALILEO 7)    
1 40544U 15017A   26198.12850752 -.00000104  00000+0  00000+0 0  9991
2 40544  56.7761 340.7804 0002702 254.9804 104.9775  1.70476213 69717
GSAT0204 (GALILEO 8)    
1 40545U 15017B   26200.73072755 -.00000107  00000+0  00000+0 0  9995
2 40545  56.7827 340.7283 0002918 234.3508 125.6149  1.70475794 32802
